{
  "norad_id": 67330,
  "name": "STARLINK-36483",
  "history": [
    {
      "epoch": "2026-03-28T16:52:15.307680Z",
      "apogee_km": 483.88841622981636,
      "perigee_km": 482.12825800503197,
      "latitude_deg": 1.9256327806791314e-05,
      "longitude_deg": 138.96843867210652,
      "height_km": 482.8925539642131,
      "semi_major_axis_km": 6861.145337117424,
      "eccentricity": 0.00012827,
      "inclination_deg": 42.9986,
      "raan_deg": 218.1518,
      "arg_perigee_deg": 262.9645,
      "mean_anomaly_deg": 97.1061,
      "mean_motion_rev_day": 15.27593612
    }
  ]
}